ONEWEB-0504             
1 54122U 22138K   24277.88548156  .00000029  00000+0  39082-4 0  9993
2 54122  87.9122  68.5283 0001591 108.1653 251.9653 13.19727214 94884
ONEWEB-0505             
1 54123U 22138L   24277.88232326  .00000031  00000+0  46102-4 0  9997
2 54123  87.9120  68.5226 0001998 115.4329 244.7011 13.19726617 94864
ONEWEB-0506             
1 54124U 22138M   24277.85704073  .00000030  00000+0  41718-4 0  9995
2 54124  87.9119  68.5244 0001787 101.5920 258.5414 13.19725875 94856
ONEWEB-0507             
1 54125U 22138N   24277.87758623 -.00000004  00000+0 -41591-4 0  9990
2 54125  87.9128  68.5509 0001913 100.4145 259.7203 13.19726777 94906
ONEWEB-0508             
1 54126U 22138P   24277.87442448  .00000026  00000+0  31465-4 0  9997
2 54126  87.9125  68.5420 0002103 103.5067 256.6300 13.19725774 94882
ONEWEB-0509             
1 54127U 22138Q   24277.84912755  .00000100  00000+0  21623-3 0  9995
2 54127  87.9118  68.5263 0001718  99.2265 260.9062 13.19722982 94850
ONEWEB-0510             
1 54128U 22138R   24278.38036405  .00000083  00000+0  17200-3 0  9991
2 54128  87.9271  37.9160 0001906  87.1710 272.9641 13.20770955 98234
ONEWEB-0511             
1 54129U 22138S   24278.14924146  .00000191  00000+0  44440-3 0  9990
2 54129  87.9118  68.4701 0001415 103.5231 256.6060 13.19725578 95792
